OBJECT_NAME,OBJECT_ID,EPOCH,MEAN_MOTION,ECCENTRICITY,INCLINATION,RA_OF_ASC_NODE,ARG_OF_PERICENTER,MEAN_ANOMALY,EPHEMERIS_TYPE,CLASSIFICATION_TYPE,NORAD_CAT_ID,ELEMENT_SET_NO,REV_AT_EPOCH,BSTAR,MEAN_MOTION_DOT,MEAN_MOTION_DDOT
SUOMI NPP,2011-061A,2026-05-09T22:12:45.099072,14.19509111,.00028502,98.7937,71.0672,79.6445,280.5053,0,U,37849,999,75301,.50003928E-4,.61E-6,0
YAOGAN-12,2011-066B,2026-05-09T23:30:30.773376,15.26102897,.00100206,97.1176,170.3515,12.6255,347.5233,0,U,37875,999,80621,.19287595E-3,.4912E-4,0
BEIDOU-2 M4,2012-018B,2026-05-08T22:09:07.925760,1.86229854,.00108839,55.6931,305.4151,282.3733,77.4996,0,U,38251,999,9521,0,-.36E-6,0
ARIRANG-3 (KOMPSAT-3),2012-025B,2026-05-09T23:38:07.921824,14.62172413,.00042663,98.1153,88.1112,224.8112,135.2745,0,U,38338,999,74576,.71358359E-4,.313E-5,0
METOP-B,2012-049A,2026-05-09T21:31:05.506464,14.21421917,.000353,98.6531,182.1543,98.1446,262.0132,0,U,38771,999,70782,.45753938E-4,.57E-6,0
SJ-9A,2012-056A,2026-05-09T21:40:14.377152,14.85390457,.0026307,97.6687,103.2484,26.7108,333.5456,0,U,38860,999,69390,.11476831E-3,.941E-5,0
COSMOS 2484 (RODNIK-S 6),2013-001C,2026-05-09T23:48:34.592256,12.42938054,.00274959,82.5016,245.6367,116.9144,243.4750,0,U,39059,999,60381,-.30041376E-4,.6E-7,0
SARAL,2013-009A,2026-05-09T21:55:03.097056,14.32846503,.00027248,98.5563,316.9648,58.3377,301.8072,0,U,39086,999,69012,.33469947E-4,.48E-6,0
STRAND-1,2013-009E,2026-05-09T23:20:32.763552,14.37140393,.00083922,98.3917,311.1494,353.8176,6.2906,0,U,39090,999,69157,.81203562E-4,.199E-5,0
BRITE-AUSTRIA,2013-009F,2026-05-09T23:15:28.710720,14.36526621,.0010131,98.3988,310.3526,1.5030,358.6185,0,U,39091,999,69156,.5531154E-4,.12E-5,0
GAOFEN-1,2013-018A,2026-05-09T23:28:00.001056,14.76534509,.00178467,97.9098,202.8186,33.5262,326.7074,0,U,39150,999,70260,.91431232E-4,.588E-5,0
NEE-01 PEGASO,2013-018B,2026-05-09T22:39:46.962720,14.93473057,.00112359,98.1173,272.8478,291.9314,68.0710,0,U,39151,999,70499,.22639638E-3,.2322E-4,0
PROBA-V,2013-021A,2026-05-09T21:13:08.522688,14.23588723,.00030794,98.3568,110.3866,236.2313,123.8574,0,U,39159,999,67566,.44031187E-4,.59E-6,0
ARIRANG-5 (KOMPSAT-5),2013-042A,2026-05-09T23:45:55.377792,15.04559450,.00020095,97.6220,317.2260,271.0788,89.0208,0,U,39227,999,69811,.13122837E-3,.1779E-4,0
GONETS-M 5,2013-048A,2026-05-09T23:01:34.588704,12.42890349,.0015919,82.4857,7.2165,299.4384,60.5107,0,U,39249,999,57413,-.94182476E-3,-.121E-5,0
GONETS-M 7,2013-048C,2026-05-09T22:09:14.544864,12.42913344,.00167548,82.4924,10.1408,300.7026,59.2403,0,U,39251,999,57408,-.32186367E-3,-.35E-6,0
FENGYUN 3C,2013-052A,2026-05-09T22:48:54.370656,14.15746078,.00155269,98.4961,105.5868,130.3346,229.9187,0,U,39260,999,65315,.55029009E-4,.67E-6,0
CASSIOPE,2013-055A,2026-05-09T22:32:50.335008,15.22458364,.03014475,80.9136,113.0550,190.6676,168.8075,0,U,39265,999,66184,.24390889E-3,.21342E-3,-.588593E-6
APRIZESAT 7,2013-066A,2026-05-09T20:19:55.800768,14.91475562,.00353608,97.7683,83.6267,340.9697,19.0198,0,U,39416,999,67551,.92241198E-4,.875E-5,0
ZACUBE-1 (TSHEPISOSAT),2013-066B,2026-05-09T21:02:29.053824,15.00890447,.00423212,97.8123,92.0065,22.1026,338.2010,0,U,39417,999,67498,.2744932E-3,.3496E-4,0
APRIZESAT 8,2013-066K,2026-05-09T19:14:12.849504,14.87568964,.00472526,97.8198,77.8137,53.4044,307.1505,0,U,39425,999,67396,.96984249E-4,.842E-5,0
