SUOMI NPP               
1 37849U 11061A   26129.92552198  .00000061  00000+0  50004-4 0  9990
2 37849  98.7937  71.0672 0002850  79.6445 280.5053 14.19509111753010
YAOGAN-12               
1 37875U 11066B   26129.97952284  .00004912  00000+0  19288-3 0  9996
2 37875  97.1176 170.3515 0010020  12.6255 347.5233 15.26102897806214
BEIDOU-2 M4             
1 38251U 12018B   26128.92300840 -.00000036  00000+0  00000+0 0  9994
2 38251  55.6931 305.4151 0010883 282.3733  77.4996  1.86229854 95211
ARIRANG-3 (KOMPSAT-3)   
1 38338U 12025B   26129.98481391  .00000313  00000+0  71358-4 0  9992
2 38338  98.1153  88.1112 0004266 224.8112 135.2745 14.62172413745760
METOP-B                 
1 38771U 12049A   26129.89659151  .00000057  00000+0  45754-4 0  9996
2 38771  98.6531 182.1543 0003530  98.1446 262.0132 14.21421917707829
SJ-9A                   
1 38860U 12056A   26129.90294418  .00000941  00000+0  11477-3 0  9992
2 38860  97.6687 103.2484 0026307  26.7108 333.5456 14.85390457693906
COSMOS 2484 (RODNIK-S 6)
1 39059U 13001C   26129.99206704  .00000006  00000+0 -30041-4 0  9996
2 39059  82.5016 245.6367 0027495 116.9144 243.4750 12.42938054603817
SARAL                   
1 39086U 13009A   26129.91323029  .00000048  00000+0  33470-4 0  9990
2 39086  98.5563 316.9648 0002724  58.3377 301.8072 14.32846503690124
STRAND-1                
1 39090U 13009E   26129.97260143  .00000199  00000+0  81204-4 0  9993
2 39090  98.3917 311.1494 0008392 353.8176   6.2906 14.37140393691574
BRITE-AUSTRIA           
1 39091U 13009F   26129.96908230  .00000120  00000+0  55312-4 0  9994
2 39091  98.3988 310.3526 0010131   1.5030 358.6185 14.36526621691563
GAOFEN-1                
1 39150U 13018A   26129.97777779  .00000588  00000+0  91431-4 0  9993
2 39150  97.9098 202.8186 0017846  33.5262 326.7074 14.76534509702604
NEE-01 PEGASO           
1 39151U 13018B   26129.94429355  .00002322  00000+0  22640-3 0  9998
2 39151  98.1173 272.8478 0011235 291.9314  68.0710 14.93473057704993
PROBA-V                 
1 39159U 13021A   26129.88412642  .00000059  00000+0  44031-4 0  9998
2 39159  98.3568 110.3866 0003079 236.2313 123.8574 14.23588723675665
ARIRANG-5 (KOMPSAT-5)   
1 39227U 13042A   26129.99022428  .00001779  00000+0  13123-3 0  9995
2 39227  97.6220 317.2260 0002009 271.0788  89.0208 15.04559450698116
GONETS-M 5              
1 39249U 13048A   26129.95942811 -.00000121  00000+0 -94182-3 0  9994
2 39249  82.4857   7.2165 0015919 299.4384  60.5107 12.42890349574139
GONETS-M 7              
1 39251U 13048C   26129.92308501 -.00000035  00000+0 -32186-3 0  9996
2 39251  82.4924  10.1408 0016754 300.7026  59.2403 12.42913344574086
FENGYUN 3C              
1 39260U 13052A   26129.95062929  .00000067  00000+0  55029-4 0  9990
2 39260  98.4961 105.5868 0015526 130.3346 229.9187 14.15746078653152
CASSIOPE                
1 39265U 13055A   26129.93947147  .00021342 -58859-6  24391-3 0  9999
2 39265  80.9136 113.0550 0301447 190.6676 168.8075 15.22458364661843
APRIZESAT 7             
1 39416U 13066A   26129.84717362  .00000875  00000+0  92241-4 0  9998
2 39416  97.7683  83.6267 0035360 340.9697  19.0198 14.91475562675518
ZACUBE-1 (TSHEPISOSAT)  
1 39417U 13066B   26129.87672516  .00003496  00000+0  27449-3 0  9992
2 39417  97.8123  92.0065 0042321  22.1026 338.2010 15.00890447674982
APRIZESAT 8             
1 39425U 13066K   26129.80153761  .00000842  00000+0  96984-4 0  9993
2 39425  97.8198  77.8137 0047252  53.4044 307.1505 14.87568964673960
